CZ-4B R/B               
1 28059U 03049C   18159.86512569 -.00000028  00000-0  51822-5 0  9990
2 28059  98.5217  57.0701 0049037 238.1017 185.6865 14.52528830775469
CZ-2C R/B               
1 28222U 04012C   18159.87842084  .00000376  00000-0  26742-4 0  9999
2 28222  97.5745 115.8764 0049011  44.3938  12.7510 15.09727083774380
SL-16 R/B               
1 28353U 04021B   18159.92214604 -.00000168  00000-0 -63198-4 0  9998
2 28353  71.0029  50.3221 0005158 350.0980  10.0040 14.14214891722583
CZ-2C R/B               
1 28480U 04046B   18159.85335987  .00000006  00000-0  18338-4 0  9991
2 28480  98.1761 237.8045 0140764 251.6634 216.1778 14.25675249705058
ARIANE 5 R/B            
1 28499U 04049H   18160.26034013  .00000039  00000-0  12054-4 0  9992
2 28499  98.0588 249.9138 0093234 141.6313 280.3669 14.79904373726802
CZ-2D R/B               
1 28738U 05024B   18160.52157977  .00000265  00000-0  19339-4 0  9990
2 28738  97.4543 194.5464 0011271 207.0283 153.0362 15.11545557709789
SUZAKU (ASTRO-EII)      
1 28773U 05025A   18159.94008549  .00000692  00000-0  30211-4 0  9990
2 28773  31.3816 141.5342 0004630 329.2467  30.7908 15.16559830711567
ALOS (DAICHI)           
1 28931U 06002A   18160.42951443  .00000150  00000-0  38179-4 0  9997
2 28931  97.8202 174.4091 0000593  67.8973 292.2297 14.62499221659672
H-2A R/B                
1 28932U 06002B   18160.45830170  .00000158  00000-0  21062-4 0  9995
2 28932  98.2327 103.2851 0088410 220.1438 254.1247 14.91722689671062
AKARI (ASTRO-F)         
1 28939U 06005A   18160.18343270  .00002508  00000-0  74759-4 0  9997
2 28939  98.2098  44.6570 0102363  26.5841 334.0595 15.30791639667693
RESURS-DK 1             
1 29228U 06021A   18160.53978278  .00000039  00000-0  10335-4 0  9995
2 29228  69.9360 268.7686 0004327 193.7504 166.3539 15.02326952661760
GENESIS 1               
1 29252U 06029A   18160.50476995  .00000391  00000-0  29466-4 0  9992
2 29252  64.5029 197.9758 0047514 287.4517  72.1414 15.17320635656031
CZ-4B R/B               
1 29507U 06046C   18160.11497152  .00000869  00000-0  72705-4 0  9993
2 29507  97.7806 172.8881 0047793 122.4220 238.1640 15.00292961634552
CZ-2C R/B               
1 31114U 07010B   18159.71352933  .00000001  00000-0  19889-4 0  9995
2 31114  98.3631  48.0698 0058535 260.0529  99.4038 14.19273064578085
COSMO-SKYMED 1          
1 31598U 07023A   18160.50712324 -.00000117  00000-0 -81359-5 0  9990
2 31598  97.8951 344.1811 0001343  99.2962 260.8399 14.82149526595375
GENESIS 2               
1 31789U 07028A   18159.60330684  .00000185  00000-0  19775-4 0  9996
2 31789  64.5042 240.1952 0016327 325.7136  34.2931 15.16564188602959
COSMOS 2428             
1 31792U 07029A   18160.50253233  .00000269  00000-0  17128-3 0  9998
2 31792  70.9639  22.6345 0005949 117.1926 242.9802 14.12531044564528
SL-16 R/B               
1 31793U 07029B   18159.95967497  .00000209  00000-0  13414-3 0  9998
2 31793  70.9763 359.7458 0002364 278.0224 184.5715 14.14404399565127
KORONAS-FOTON           
1 33504U 09003A   18159.69445571  .00000670  00000-0  33932-4 0  9999
2 33504  82.4437 238.6114 0018217 321.5527  38.4406 15.15176204515451
H-2A R/B                
1 38341U 12025E   18159.86665901  .00000134  00000-0  23133-4 0  9998
2 38341  98.4204 261.4396 0057066  90.8173 269.9579 14.83759971327778
CUSAT 2 & FALCON 9 R/B  
1 39271U 13055G   18160.54237048  .00003964  00000-0  99982-4 0  9998
2 39271  80.9662 337.8015 0615286 221.4867 133.8051 14.41395814244034
ALOS-2                  
1 39766U 14029A   18160.48695268 -.00000186  00000-0 -17989-4 0  9996
2 39766  97.9225 257.6837 0001538  83.8767 276.2604 14.79470351218437
SL-27 R/B               
1 40354U 14084B   18160.51624758  .00000793  00000-0  21336-4 0  9995
2 40354  74.7385 115.4982 0039895 315.8495  43.9534 15.39061581194811
ASTRO-H (HITOMI)        
1 41337U 16012A   18160.05197968  .00000220  00000-0  11004-4 0  9993
2 41337  31.0067  17.1363 0012510 324.8518  35.1291 14.98471906126490
TIANGONG-2              
1 41765U 16057A   18160.41123843  .00004057  00000-0  50529-4 0  9995
2 41765  42.7868  29.2137 0004103 225.0937 126.4187 15.61466975 98769
SHENZHOU-11 MODULE      
1 41868U 16061G   18159.84415509  .00008592  00000-0  66621-4 0  9990
2 41868  42.7957   2.5561 0002053 316.2434 224.0633 15.72139706 88967
